[{"OBJECT_NAME":"OBJECT J","OBJECT_ID":"2023-085J","EPOCH":"2026-03-09T22:47:59.920512","MEAN_MOTION":15.31507187,"ECCENTRICITY":0.00067028,"INCLINATION":97.4828,"RA_OF_ASC_NODE":180.1819,"ARG_OF_PERICENTER":41.7877,"MEAN_ANOMALY":318.3875,"EPHEMERIS_TYPE":0,"CLASSIFICATION_TYPE":"U","NORAD_CAT_ID":57012,"ELEMENT_SET_NO":999,"REV_AT_EPOCH":15156,"BSTAR":0.00064525349,"MEAN_MOTION_DOT":0.00019595,"MEAN_MOTION_DDOT":0},{"OBJECT_NAME":"STARLINK-30598","OBJECT_ID":"2023-160E","EPOCH":"2026-03-09T02:01:36.543936","MEAN_MOTION":15.27576958,"ECCENTRICITY":4.243e-5,"INCLINATION":42.999,"RA_OF_ASC_NODE":81.2724,"ARG_OF_PERICENTER":309.5491,"MEAN_ANOMALY":50.5323,"EPHEMERIS_TYPE":0,"CLASSIFICATION_TYPE":"U","NORAD_CAT_ID":58079,"ELEMENT_SET_NO":999,"REV_AT_EPOCH":13285,"BSTAR":1.0999071e-5,"MEAN_MOTION_DOT":4.1e-7,"MEAN_MOTION_DDOT":0}]
